[{"OBJECT_NAME":"SHENZHOU-22","OBJECT_ID":"2025-272A","EPOCH":"2026-03-10T19:16:55.378272","MEAN_MOTION":15.60727089,"ECCENTRICITY":0.0006965,"INCLINATION":41.4661,"RA_OF_ASC_NODE":201.385,"ARG_OF_PERICENTER":279.9751,"MEAN_ANOMALY":80.0301,"EPHEMERIS_TYPE":0,"CLASSIFICATION_TYPE":"U","NORAD_CAT_ID":66645,"ELEMENT_SET_NO":999,"REV_AT_EPOCH":26946,"BSTAR":0.00036544,"MEAN_MOTION_DOT":0.0003107,"MEAN_MOTION_DDOT":0},{"OBJECT_NAME":"SOYUZ-MS 28","OBJECT_ID":"2025-275A","EPOCH":"2026-03-10T11:33:06.281280","MEAN_MOTION":15.48562436,"ECCENTRICITY":0.0007951,"INCLINATION":51.6323,"RA_OF_ASC_NODE":68.4424,"ARG_OF_PERICENTER":177.3714,"MEAN_ANOMALY":182.7318,"EPHEMERIS_TYPE":0,"CLASSIFICATION_TYPE":"U","NORAD_CAT_ID":66664,"ELEMENT_SET_NO":999,"REV_AT_EPOCH":55646,"BSTAR":0.00017349,"MEAN_MOTION_DOT":8.982e-5,"MEAN_MOTION_DDOT":0},{"OBJECT_NAME":"DUPLEX","OBJECT_ID":"1998-067XS","EPOCH":"2026-03-10T14:43:33.963456","MEAN_MOTION":15.56285784,"ECCENTRICITY":0.0002504,"INCLINATION":51.6293,"RA_OF_ASC_NODE":64.8292,"ARG_OF_PERICENTER":116.6687,"MEAN_ANOMALY":243.4561,"EPHEMERIS_TYPE":0,"CLASSIFICATION_TYPE":"U","NORAD_CAT_ID":66906,"ELEMENT_SET_NO":999,"REV_AT_EPOCH":1527,"BSTAR":0.00055126,"MEAN_MOTION_DOT":0.00039211,"MEAN_MOTION_DDOT":0},{"OBJECT_NAME":"ISS OBJECT XT","OBJECT_ID":"1998-067XT","EPOCH":"2026-03-10T05:16:15.621600","MEAN_MOTION":15.69436118,"ECCENTRICITY":0.00047254,"INCLINATION":51.6253,"RA_OF_ASC_NODE":62.933,"ARG_OF_PERICENTER":80.8513,"MEAN_ANOMALY":279.3019,"EPHEMERIS_TYPE":0,"CLASSIFICATION_TYPE":"U","NORAD_CAT_ID":66907,"ELEMENT_SET_NO":999,"REV_AT_EPOCH":1526,"BSTAR":0.001551912,"MEAN_MOTION_DOT":0.00189996,"MEAN_MOTION_DDOT":0},{"OBJECT_NAME":"ISS OBJECT XU","OBJECT_ID":"1998-067XU","EPOCH":"2026-03-10T12:52:00.512256","MEAN_MOTION":15.69670392,"ECCENTRICITY":0.0004878,"INCLINATION":51.6261,"RA_OF_ASC_NODE":61.2936,"ARG_OF_PERICENTER":85.4529,"MEAN_ANOMALY":274.7026,"EPHEMERIS_TYPE":0,"CLASSIFICATION_TYPE":"U","NORAD_CAT_ID":66908,"ELEMENT_SET_NO":999,"REV_AT_EPOCH":1531,"BSTAR":0.0014388,"MEAN_MOTION_DOT":0.00177562,"MEAN_MOTION_DDOT":0},{"OBJECT_NAME":"SILVERSAT","OBJECT_ID":"1998-067XV","EPOCH":"2026-03-10T05:13:58.057248","MEAN_MOTION":15.72479555,"ECCENTRICITY":0.00054753,"INCLINATION":51.6252,"RA_OF_ASC_NODE":62.1676,"ARG_OF_PERICENTER":80.1195,"MEAN_ANOMALY":280.0421,"EPHEMERIS_TYPE":0,"CLASSIFICATION_TYPE":"U","NORAD_CAT_ID":66909,"ELEMENT_SET_NO":999,"REV_AT_EPOCH":1527,"BSTAR":0.0017775765,"MEAN_MOTION_DOT":0.00249186,"MEAN_MOTION_DDOT":0},{"OBJECT_NAME":"ISS OBJECT XW","OBJECT_ID":"1998-067XW","EPOCH":"2026-03-10T11:16:06.463200","MEAN_MOTION":15.68845545,"ECCENTRICITY":0.0005289,"INCLINATION":51.6243,"RA_OF_ASC_NODE":61.5937,"ARG_OF_PERICENTER":91.4427,"MEAN_ANOMALY":268.7175,"EPHEMERIS_TYPE":0,"CLASSIFICATION_TYPE":"U","NORAD_CAT_ID":66910,"ELEMENT_SET_NO":999,"REV_AT_EPOCH":1530,"BSTAR":0.0014095,"MEAN_MOTION_DOT":0.00167916,"MEAN_MOTION_DDOT":0},{"OBJECT_NAME":"ISS OBJECT XX","OBJECT_ID":"1998-067XX","EPOCH":"2026-03-10T09:42:09.192384","MEAN_MOTION":15.75795893,"ECCENTRICITY":0.0006887,"INCLINATION":51.6205,"RA_OF_ASC_NODE":60.3911,"ARG_OF_PERICENTER":88.8757,"MEAN_ANOMALY":271.3031,"EPHEMERIS_TYPE":0,"CLASSIFICATION_TYPE":"U","NORAD_CAT_ID":66911,"ELEMENT_SET_NO":999,"REV_AT_EPOCH":1530,"BSTAR":0.0020071,"MEAN_MOTION_DOT":0.00327969,"MEAN_MOTION_DDOT":0},{"OBJECT_NAME":"ISS OBJECT XY","OBJECT_ID":"1998-067XY","EPOCH":"2026-03-10T05:17:47.850144","MEAN_MOTION":15.63798105,"ECCENTRICITY":0.0003218,"INCLINATION":51.6272,"RA_OF_ASC_NODE":64.4503,"ARG_OF_PERICENTER":91.272,"MEAN_ANOMALY":268.8644,"EPHEMERIS_TYPE":0,"CLASSIFICATION_TYPE":"U","NORAD_CAT_ID":66912,"ELEMENT_SET_NO":999,"REV_AT_EPOCH":1523,"BSTAR":0.0011637,"MEAN_MOTION_DOT":0.0011218,"MEAN_MOTION_DDOT":0},{"OBJECT_NAME":"KNACKSAT-2","OBJECT_ID":"1998-067XZ","EPOCH":"2026-03-10T12:00:32.401728","MEAN_MOTION":15.51899743,"ECCENTRICITY":0.0009378,"INCLINATION":51.631,"RA_OF_ASC_NODE":67.8211,"ARG_OF_PERICENTER":188.4486,"MEAN_ANOMALY":171.6347,"EPHEMERIS_TYPE":0,"CLASSIFICATION_TYPE":"U","NORAD_CAT_ID":67683,"ELEMENT_SET_NO":999,"REV_AT_EPOCH":491,"BSTAR":0.00072346,"MEAN_MOTION_DOT":0.00044028,"MEAN_MOTION_DDOT":0},{"OBJECT_NAME":"GXIBA-1","OBJECT_ID":"1998-067YA","EPOCH":"2026-03-10T09:46:49.267488","MEAN_MOTION":15.54450366,"ECCENTRICITY":0.0011132,"INCLINATION":51.6304,"RA_OF_ASC_NODE":67.9518,"ARG_OF_PERICENTER":178.2163,"MEAN_ANOMALY":181.8869,"EPHEMERIS_TYPE":0,"CLASSIFICATION_TYPE":"U","NORAD_CAT_ID":67684,"ELEMENT_SET_NO":999,"REV_AT_EPOCH":490,"BSTAR":0.001416,"MEAN_MOTION_DOT":0.00095739,"MEAN_MOTION_DDOT":0},{"OBJECT_NAME":"CORAL","OBJECT_ID":"1998-067YB","EPOCH":"2026-03-10T14:59:17.581056","MEAN_MOTION":15.52282443,"ECCENTRICITY":0.001138,"INCLINATION":51.6307,"RA_OF_ASC_NODE":67.1509,"ARG_OF_PERICENTER":185.5347,"MEAN_ANOMALY":174.5518,"EPHEMERIS_TYPE":0,"CLASSIFICATION_TYPE":"U","NORAD_CAT_ID":67685,"ELEMENT_SET_NO":999,"REV_AT_EPOCH":493,"BSTAR":0.00079168,"MEAN_MOTION_DOT":0.00048969,"MEAN_MOTION_DDOT":0},{"OBJECT_NAME":"ISS OBJECT YC","OBJECT_ID":"1998-067YC","EPOCH":"2026-03-10T05:34:49.865376","MEAN_MOTION":15.5279489,"ECCENTRICITY":0.0007963,"INCLINATION":51.631,"RA_OF_ASC_NODE":69.0348,"ARG_OF_PERICENTER":152.0771,"MEAN_ANOMALY":208.0648,"EPHEMERIS_TYPE":0,"CLASSIFICATION_TYPE":"U","NORAD_CAT_ID":67686,"ELEMENT_SET_NO":999,"REV_AT_EPOCH":487,"BSTAR":0.0010125,"MEAN_MOTION_DOT":0.00063974,"MEAN_MOTION_DDOT":0},{"OBJECT_NAME":"LEOPARD","OBJECT_ID":"1998-067YD","EPOCH":"2026-03-10T13:29:45.354336","MEAN_MOTION":15.52085814,"ECCENTRICITY":0.0007913,"INCLINATION":51.6319,"RA_OF_ASC_NODE":67.4868,"ARG_OF_PERICENTER":156.8931,"MEAN_ANOMALY":203.2415,"EPHEMERIS_TYPE":0,"CLASSIFICATION_TYPE":"U","NORAD_CAT_ID":67687,"ELEMENT_SET_NO":999,"REV_AT_EPOCH":484,"BSTAR":0.00073904,"MEAN_MOTION_DOT":0.00045275,"MEAN_MOTION_DDOT":0},{"OBJECT_NAME":"ISS OBJECT YE","OBJECT_ID":"1998-067YE","EPOCH":"2026-03-10T19:32:44.629152","MEAN_MOTION":15.52601485,"ECCENTRICITY":0.00079,"INCLINATION":51.631,"RA_OF_ASC_NODE":66.1711,"ARG_OF_PERICENTER":154.7,"MEAN_ANOMALY":205.4378,"EPHEMERIS_TYPE":0,"CLASSIFICATION_TYPE":"U","NORAD_CAT_ID":67688,"ELEMENT_SET_NO":999,"REV_AT_EPOCH":488,"BSTAR":0.00092094,"MEAN_MOTION_DOT":0.0005769,"MEAN_MOTION_DDOT":0},{"OBJECT_NAME":"CREW DRAGON 12","OBJECT_ID":"2026-031A","EPOCH":"2026-03-10T11:33:06.281280","MEAN_MOTION":15.48562436,"ECCENTRICITY":0.0007951,"INCLINATION":51.6323,"RA_OF_ASC_NODE":68.4424,"ARG_OF_PERICENTER":177.3714,"MEAN_ANOMALY":182.7318,"EPHEMERIS_TYPE":0,"CLASSIFICATION_TYPE":"U","NORAD_CAT_ID":67796,"ELEMENT_SET_NO":999,"REV_AT_EPOCH":55634,"BSTAR":0.00017349,"MEAN_MOTION_DOT":8.982e-5,"MEAN_MOTION_DDOT":0}]
